{
    "links": {
        "self": "http://www.neowsapp.com/rest/v1/neo/3591723?api_key=iIulBulltgU6a56xZRHN4H3l9WmuAYTsLGpBGhQ2"
    },
    "id": "3591723",
    "neo_reference_id": "3591723",
    "name": "(2011 YK28)",
    "designation": "2011 YK28",
    "nasa_jpl_url": "http://ssd.jpl.nasa.gov/sbdb.cgi?sstr=3591723",
    "absolute_magnitude_h": 23.6,
    "estimated_diameter": {
        "kilometers": {
            "estimated_diameter_min": 0.0506471459,
            "estimated_diameter_max": 0.1132504611
        },
        "meters": {
            "estimated_diameter_min": 50.6471458835,
            "estimated_diameter_max": 113.2504610618
        },
        "miles": {
            "estimated_diameter_min": 0.0314706677,
            "estimated_diameter_max": 0.0703705522
        },
        "feet": {
            "estimated_diameter_min": 166.1651821003,
            "estimated_diameter_max": 371.5566426699
        }
    },
    "is_potentially_hazardous_asteroid": false,
    "close_approach_data": [
        {
            "close_approach_date": "2011-12-19",
            "close_approach_date_full": "2011-Dec-19 11:26",
            "epoch_date_close_approach": 1324293960000,
            "relative_velocity": {
                "kilometers_per_second": "8.6301275043",
                "kilometers_per_hour": "31068.4590156489",
                "miles_per_hour": "19304.7322144736"
            },
            "miss_distance": {
                "astronomical": "0.1317758657",
                "lunar": "51.2608117573",
                "kilometers": "19713388.826126059",
                "miles": "12249331.8074912542"
            },
            "orbiting_body": "Earth"
        }
    ],
    "orbital_data": {
        "orbit_id": "6",
        "orbit_determination_date": "2017-04-06 08:51:39",
        "first_observation_date": "2011-12-28",
        "last_observation_date": "2012-01-03",
        "data_arc_in_days": 6,
        "observations_used": 19,
        "orbit_uncertainty": "8",
        "minimum_orbit_intersection": ".130567",
        "jupiter_tisserand_invariant": "4.845",
        "epoch_osculation": "2455925.5",
        "eccentricity": ".1735336880444631",
        "semi_major_axis": "1.339419836552944",
        "inclination": "16.05427160695528",
        "ascending_node_longitude": "91.60602820714371",
        "orbital_period": "566.2047606197955",
        "perihelion_distance": "1.106985372476",
        "perihelion_argument": "340.5214394087614",
        "aphelion_distance": "1.571854300629889",
        "perihelion_time": "2455899.806773060059",
        "mean_anomaly": "16.33607193315319",
        "mean_motion": ".6358123863280951",
        "equinox": "J2000",
        "orbit_class": {
            "orbit_class_type": "AMO",
            "orbit_class_description": "Near-Earth asteroid orbits similar to that of 1221 Amor",
            "orbit_class_range": "1.017 AU < q (perihelion) < 1.3 AU"
        }
    },
    "is_sentry_object": false
}